[{"OBJECT_NAME":"STARLINK-5119","OBJECT_ID":"2022-125Y","EPOCH":"2026-03-09T15:56:53.332224","MEAN_MOTION":15.08839018,"ECCENTRICITY":0.00013163,"INCLINATION":53.2175,"RA_OF_ASC_NODE":203.9137,"ARG_OF_PERICENTER":86.8973,"MEAN_ANOMALY":273.217,"EPHEMERIS_TYPE":0,"CLASSIFICATION_TYPE":"U","NORAD_CAT_ID":53986,"ELEMENT_SET_NO":999,"REV_AT_EPOCH":18959,"BSTAR":2.1470498e-5,"MEAN_MOTION_DOT":5.4e-7,"MEAN_MOTION_DDOT":0},{"OBJECT_NAME":"AVUM R\/B","OBJECT_ID":"2015-028B","EPOCH":"2026-03-09T15:47:10.915008","MEAN_MOTION":15.38120394,"ECCENTRICITY":0.01316946,"INCLINATION":98.6577,"RA_OF_ASC_NODE":312.3046,"ARG_OF_PERICENTER":250.9525,"MEAN_ANOMALY":107.7413,"EPHEMERIS_TYPE":0,"CLASSIFICATION_TYPE":"U","NORAD_CAT_ID":40698,"ELEMENT_SET_NO":999,"REV_AT_EPOCH":58785,"BSTAR":0.00031736457,"MEAN_MOTION_DOT":0.00015963,"MEAN_MOTION_DDOT":0}]
